{
  "norad_id": 63014,
  "name": "STARLINK-11578 [DTC]",
  "history": [
    {
      "epoch": "2026-04-12T23:34:12.099072Z",
      "apogee_km": 357.91077420062993,
      "perigee_km": 354.5826417721446,
      "latitude_deg": 2.054268480841715e-05,
      "longitude_deg": 154.21369818515342,
      "height_km": 355.9527236593171,
      "semi_major_axis_km": 6734.383707986387,
      "eccentricity": 0.0002471,
      "inclination_deg": 43.001,
      "raan_deg": 348.9435,
      "arg_perigee_deg": 272.3198,
      "mean_anomaly_deg": 87.7387,
      "mean_motion_rev_day": 15.70926896
    },
    {
      "epoch": "2026-04-14T16:46:19.573824Z",
      "apogee_km": 357.6589939667929,
      "perigee_km": 355.2331971357762,
      "latitude_deg": 3.031192285899362e-05,
      "longitude_deg": -115.85764371002071,
      "height_km": 356.8206622098661,
      "semi_major_axis_km": 6734.583095551285,
      "eccentricity": 0.0001801,
      "inclination_deg": 42.9999,
      "raan_deg": 338.5954,
      "arg_perigee_deg": 240.2375,
      "mean_anomaly_deg": 119.8314,
      "mean_motion_rev_day": 15.70857132
    },
    {
      "epoch": "2026-04-15T08:01:55.750656Z",
      "apogee_km": 357.3361462974299,
      "perigee_km": 355.22800375018414,
      "latitude_deg": -2.2620186940803136e-05,
      "longitude_deg": 10.781556223007122,
      "height_km": 355.54722092269327,
      "semi_major_axis_km": 6734.419075023807,
      "eccentricity": 0.00015652,
      "inclination_deg": 43.0012,
      "raan_deg": 334.7621,
      "arg_perigee_deg": 298.7802,
      "mean_anomaly_deg": 61.2908,
      "mean_motion_rev_day": 15.70914521
    },
    {
      "epoch": "2026-04-16T14:33:07.363008Z",
      "apogee_km": 356.6152275961131,
      "perigee_km": 356.00104619962895,
      "latitude_deg": 3.6071481392606225e-05,
      "longitude_deg": -95.9346709497165,
      "height_km": 356.3116874066358,
      "semi_major_axis_km": 6734.445136897871,
      "eccentricity": 4.56e-05,
      "inclination_deg": 42.9971,
      "raan_deg": 327.0976,
      "arg_perigee_deg": 220.7972,
      "mean_anomaly_deg": 139.2862,
      "mean_motion_rev_day": 15.70905402
    },
    {
      "epoch": "2026-04-17T22:35:52.320192Z",
      "apogee_km": 357.99446459544833,
      "perigee_km": 354.81023969896523,
      "latitude_deg": 1.2307449124863543e-05,
      "longitude_deg": 134.01340881737997,
      "height_km": 356.2188426058527,
      "semi_major_axis_km": 6734.539352147206,
      "eccentricity": 0.00023641,
      "inclination_deg": 43.0011,
      "raan_deg": 319.0491,
      "arg_perigee_deg": 268.4455,
      "mean_anomaly_deg": 91.6142,
      "mean_motion_rev_day": 15.70872437
    },
    {
      "epoch": "2026-04-18T18:26:09.062880Z",
      "apogee_km": 357.556161073564,
      "perigee_km": 354.08951854802945,
      "latitude_deg": 2.6741317934500985e-05,
      "longitude_deg": -169.35305398602793,
      "height_km": 356.3895309603096,
      "semi_major_axis_km": 6733.959839810796,
      "eccentricity": 0.0002574,
      "inclination_deg": 43.0002,
      "raan_deg": 314.0671,
      "arg_perigee_deg": 242.7487,
      "mean_anomaly_deg": 117.3119,
      "mean_motion_rev_day": 15.71075221
    },
    {
      "epoch": "2026-04-19T20:22:40.212192Z",
      "apogee_km": 358.34516101277404,
      "perigee_km": 354.5885989685148,
      "latitude_deg": -1.5071366614935687e-06,
      "longitude_deg": 153.93572651753328,
      "height_km": 355.6699020226203,
      "semi_major_axis_km": 6734.603879990644,
      "eccentricity": 0.0002789,
      "inclination_deg": 43.0016,
      "raan_deg": 307.5511,
      "arg_perigee_deg": 287.6862,
      "mean_anomaly_deg": 72.3701,
      "mean_motion_rev_day": 15.7084986
    },
    {
      "epoch": "2026-04-20T05:32:01.731840Z",
      "apogee_km": 358.4488848217079,
      "perigee_km": 354.2613776145172,
      "latitude_deg": 4.825735667262628e-05,
      "longitude_deg": 13.917291048050165,
      "height_km": 355.1399448801041,
      "semi_major_axis_km": 6734.492131218112,
      "eccentricity": 0.0003109,
      "inclination_deg": 42.9966,
      "raan_deg": 305.2483,
      "arg_perigee_deg": 298.1681,
      "mean_anomaly_deg": 61.8873,
      "mean_motion_rev_day": 15.70888959
    },
    {
      "epoch": "2026-04-20T20:47:37.538880Z",
      "apogee_km": 358.14810789663716,
      "perigee_km": 354.1834891530889,
      "latitude_deg": 3.614959877456343e-05,
      "longitude_deg": 140.56207699338995,
      "height_km": 356.2466760160947,
      "semi_major_axis_km": 6734.302798524863,
      "eccentricity": 0.00029436,
      "inclination_deg": 43.0013,
      "raan_deg": 301.419,
      "arg_perigee_deg": 261.0837,
      "mean_anomaly_deg": 98.9698,
      "mean_motion_rev_day": 15.70955207
    },
    {
      "epoch": "2026-04-22T18:34:25.469760Z",
      "apogee_km": 357.55196442060515,
      "perigee_km": 355.28645971086644,
      "latitude_deg": 4.184121934763857e-06,
      "longitude_deg": 160.4851091101841,
      "height_km": 356.42249544506075,
      "semi_major_axis_km": 6734.556212065735,
      "eccentricity": 0.0001682,
      "inclination_deg": 42.9999,
      "raan_deg": 289.9219,
      "arg_perigee_deg": 258.2496,
      "mean_anomaly_deg": 101.8183,
      "mean_motion_rev_day": 15.70866538
    },
    {
      "epoch": "2026-04-22T20:05:58.909632Z",
      "apogee_km": 357.66155768093176,
      "perigee_km": 355.19939981070274,
      "latitude_deg": -3.0138093867528176e-05,
      "longitude_deg": 137.1501707896104,
      "height_km": 356.1337424854789,
      "semi_major_axis_km": 6734.567478745817,
      "eccentricity": 0.0001828,
      "inclination_deg": 42.9997,
      "raan_deg": 289.539,
      "arg_perigee_deg": 273.2364,
      "mean_anomaly_deg": 86.8294,
      "mean_motion_rev_day": 15.70862596
    },
    {
      "epoch": "2026-04-24T19:24:19.334304Z",
      "apogee_km": 357.9824167211982,
      "perigee_km": 354.83065034750325,
      "latitude_deg": 6.501750128460383e-06,
      "longitude_deg": 133.7408291819029,
      "height_km": 356.4635372728517,
      "semi_major_axis_km": 6734.54353353435,
      "eccentricity": 0.000234,
      "inclination_deg": 43.0006,
      "raan_deg": 277.6575,
      "arg_perigee_deg": 259.6236,
      "mean_anomaly_deg": 100.4368,
      "mean_motion_rev_day": 15.70870974
    },
    {
      "epoch": "2026-04-25T10:39:54.748224Z",
      "apogee_km": 357.6513251367023,
      "perigee_km": 354.18598009786547,
      "latitude_deg": -2.9892554401799735e-05,
      "longitude_deg": -99.61526707096418,
      "height_km": 355.92078427843563,
      "semi_major_axis_km": 6734.055652617284,
      "eccentricity": 0.0002573,
      "inclination_deg": 42.9993,
      "raan_deg": 273.8257,
      "arg_perigee_deg": 262.407,
      "mean_anomaly_deg": 97.6505,
      "mean_motion_rev_day": 15.71041691
    },
    {
      "epoch": "2026-04-26T18:42:40.456224Z",
      "apogee_km": 357.90919090950865,
      "perigee_km": 354.76877007028634,
      "latitude_deg": 2.079147693157089e-05,
      "longitude_deg": 130.3292536885741,
      "height_km": 355.7735079382833,
      "semi_major_axis_km": 6734.475980489897,
      "eccentricity": 0.00023316,
      "inclination_deg": 43.0023,
      "raan_deg": 265.7767,
      "arg_perigee_deg": 282.4643,
      "mean_anomaly_deg": 77.5964,
      "mean_motion_rev_day": 15.7089461
    },
    {
      "epoch": "2026-04-27T20:39:10.944576Z",
      "apogee_km": 357.4520318238019,
      "perigee_km": 355.1919473868902,
      "latitude_deg": -3.150661077160689e-05,
      "longitude_deg": 93.62107199002257,
      "height_km": 355.92686210202504,
      "semi_major_axis_km": 6734.458989605346,
      "eccentricity": 0.0001678,
      "inclination_deg": 43.0018,
      "raan_deg": 259.261,
      "arg_perigee_deg": 278.5503,
      "mean_anomaly_deg": 81.5174,
      "mean_motion_rev_day": 15.70900555
    },
    {
      "epoch": "2026-04-28T19:32:35.737728Z",
      "apogee_km": 357.5583845887131,
      "perigee_km": 355.3090379711457,
      "latitude_deg": 2.247879365390666e-05,
      "longitude_deg": 103.5766574995048,
      "height_km": 356.53480163619497,
      "semi_major_axis_km": 6734.570711279929,
      "eccentricity": 0.000167,
      "inclination_deg": 43.003,
      "raan_deg": 253.5099,
      "arg_perigee_deg": 253.0335,
      "mean_anomaly_deg": 107.035,
      "mean_motion_rev_day": 15.70861465
    },
    {
      "epoch": "2026-04-29T18:25:59.634048Z",
      "apogee_km": 357.3028385729358,
      "perigee_km": 355.2676961637362,
      "latitude_deg": 4.086215684044963e-05,
      "longitude_deg": 113.5402517159621,
      "height_km": 355.7175633061387,
      "semi_major_axis_km": 6734.422267368335,
      "eccentricity": 0.0001511,
      "inclination_deg": 43.0018,
      "raan_deg": 247.7631,
      "arg_perigee_deg": 289.5443,
      "mean_anomaly_deg": 70.5262,
      "mean_motion_rev_day": 15.70913404
    },
    {
      "epoch": "2026-04-30T08:10:01.208064Z",
      "apogee_km": 357.0294866912609,
      "perigee_km": 355.26954825278426,
      "latitude_deg": -2.892160083989438e-05,
      "longitude_deg": -96.48010711004785,
      "height_km": 356.6317297736007,
      "semi_major_axis_km": 6734.286517472022,
      "eccentricity": 0.00013067,
      "inclination_deg": 43.0002,
      "raan_deg": 244.3134,
      "arg_perigee_deg": 216.1664,
      "mean_anomaly_deg": 143.9115,
      "mean_motion_rev_day": 15.70960904
    },
    {
      "epoch": "2026-05-01T16:12:46.213632Z",
      "apogee_km": 358.00732935383076,
      "perigee_km": 354.8556859836126,
      "latitude_deg": -1.611311907432752e-05,
      "longitude_deg": 133.46860645965685,
      "height_km": 356.3193919167204,
      "semi_major_axis_km": 6734.568507668721,
      "eccentricity": 0.00023399,
      "inclination_deg": 43.0025,
      "raan_deg": 236.2657,
      "arg_perigee_deg": 265.8349,
      "mean_anomaly_deg": 94.2251,
      "mean_motion_rev_day": 15.70862236
    }
  ]
}